NORAD_CAT_ID,OBJECT_NAME,OBJECT_TYPE,EPOCH,MEAN_MOTION,ECCENTRICITY,INCLINATION,RA_OF_ASC_NODE,ARG_OF_PERICENTER,MEAN_ANOMALY,BSTAR,MEAN_MOTION_DOT,MEAN_MOTION_DDOT,TLE_LINE0,TLE_LINE1,TLE_LINE2,SEMIMAJOR_AXIS,PERIOD,APOGEE,PERIGEE,DECAYED
53748.0,STARLINK-4669,PAYLOAD,2024-06-01 14:25:46,15.08831222,0.0001176,53.2197,284.7022,89.9445,270.1682,-4.1757e-05,-9.52e-06,0.0,0 STARLINK-4669,1 53748U 22107BA  24153.60123722 -.00000952  00000-0 -41757-4 0  9993,2 53748  53.2197 284.7022 0001176  89.9445 270.1682 15.08831222 97054,6917.907,95.438,540.586,538.959,0.0
53748.0,STARLINK-4669,PAYLOAD,2024-06-02 01:33:28,15.0883426,0.0001202,53.219,282.618,85.7679,274.345,2.2647e-06,-2.52e-06,0.0,0 STARLINK-4669,1 53748U 22107BA  24154.06491479 -.00000252  00000-0  22647-5 0  9991,2 53748  53.2190 282.6180 0001202  85.7679 274.3450 15.08834260 97124,6917.898,95.438,540.594,538.931,0.0
53748.0,STARLINK-4669,PAYLOAD,2024-06-03 01:24:15,15.08846063,0.0001163,53.2187,278.1577,89.0551,271.0575,2.6369e-05,1.32e-06,0.0,0 STARLINK-4669,1 53748U 22107BA  24155.05850803  .00000132  00000-0  26369-4 0  9991,2 53748  53.2187 278.1577 0001163  89.0551 271.0575 15.08846063 96497,6917.862,95.437,540.531,538.922,0.0
53748.0,STARLINK-4669,PAYLOAD,2024-06-03 14:07:20,15.0883335,9.43e-05,53.2165,275.7777,91.2224,268.8876,0.00012549,1.71e-05,0.0,0 STARLINK-4669,1 53748U 22107BA  24155.58843503  .00001710  00000-0  12549-3 0  9995,2 53748  53.2165 275.7777 0000943  91.2224 268.8876 15.08833350 96577,6917.901,95.438,540.418,539.113,0.0
53748.0,STARLINK-4669,PAYLOAD,2024-06-03 17:18:06,15.08846065,0.0001148,53.2179,275.1829,94.6206,265.4917,0.00016645,2.363e-05,0.0,0 STARLINK-4669,1 53748U 22107BA  24155.72090671  .00002363  00000-0  16645-3 0  9997,2 53748  53.2179 275.1829 0001148  94.6206 265.4917 15.08846065 96597,6917.862,95.437,540.521,538.933,0.0
53748.0,STARLINK-4669,PAYLOAD,2024-06-04 01:15:02,15.08841794,0.0001036,53.215,273.694,89.8787,270.2324,8.6645e-05,1.092e-05,0.0,0 STARLINK-4669,1 53748U 22107BA  24156.05211076  .00001092  00000-0  86645-4 0  9994,2 53748  53.2150 273.6940 0001036  89.8787 270.2324 15.08841794 96645,6917.875,95.437,540.457,539.023,0.0
53748.0,STARLINK-4669,PAYLOAD,2024-06-04 13:58:07,15.08847361,0.0001184,53.2112,271.3149,90.7998,269.313,9.869e-05,1.283e-05,0.0,0 STARLINK-4669,1 53748U 22107BA  24156.58202604  .00001283  00000-0  98690-4 0  9994,2 53748  53.2112 271.3149 0001184  90.7998 269.3130 15.08847361 97504,6917.858,95.437,540.542,538.904,0.0
53748.0,STARLINK-4669,PAYLOAD,2024-06-05 12:13:32,15.08831707,0.0001534,53.2164,267.1509,114.1182,245.997,-2.5317e-06,-3.28e-06,0.0,0 STARLINK-4669,1 53748U 22107BA  24157.50939938 -.00000328  00000-0 -25317-5 0  9992,2 53748  53.2164 267.1509 0001534 114.1182 245.9970 15.08831707 96866,6917.906,95.438,540.832,538.71,0.0
53748.0,STARLINK-4669,PAYLOAD,2024-06-05 13:48:55,15.0882966,0.000128,53.2171,266.8554,107.3836,252.7296,-1.1652e-05,-4.73e-06,0.0,0 STARLINK-4669,1 53748U 22107BA  24157.57564151 -.00000473  00000-0 -11652-4 0  9997,2 53748  53.2171 266.8554 0001280 107.3836 252.7296 15.08829660 97658,6917.912,95.438,540.662,538.892,0.0
53748.0,STARLINK-4669,PAYLOAD,2024-06-06 13:39:42,15.0883946,0.0001162,53.2179,262.3965,97.2565,262.856,0.00011405,1.528e-05,0.0,0 STARLINK-4669,1 53748U 22107BA  24158.56923650  .00001528  00000-0  11405-3 0  9995,2 53748  53.2179 262.3965 0001162  97.2565 262.8560 15.08839460 97024,6917.882,95.438,540.551,538.943,0.0
53748.0,STARLINK-4669,PAYLOAD,2024-06-06 16:50:27,15.08851711,0.0001051,53.2169,261.8021,88.8152,271.2961,0.00012816,1.753e-05,0.0,0 STARLINK-4669,1 53748U 22107BA  24158.70170744  .00001753  00000-0  12816-3 0  9996,2 53748  53.2169 261.8021 0001051  88.8152 271.2961 15.08851711 97049,6917.845,95.437,540.437,538.983,0.0
53748.0,STARLINK-4669,PAYLOAD,2024-06-07 16:41:15,15.08850712,0.0001172,53.2173,257.3417,78.4856,281.6268,0.00030745,4.61e-05,0.0,0 STARLINK-4669,1 53748U 22107BA  24159.69531273  .00004610  00000-0  30745-3 0  9999,2 53748  53.2173 257.3417 0001172  78.4856 281.6268 15.08850712 97194,6917.848,95.437,540.523,538.902,0.0
53748.0,STARLINK-4669,PAYLOAD,2024-06-07 23:02:47,15.08841999,0.0001428,53.2167,256.1514,77.8587,282.2565,0.00011148,1.487e-05,0.0,0 STARLINK-4669,1 53748U 22107BA  24159.96027708  .00001487  00000-0  11148-3 0  9997,2 53748  53.2167 256.1514 0001428  77.8587 282.2565 15.08841999 97239,6917.874,95.437,540.727,538.751,0.0
53748.0,STARLINK-4669,PAYLOAD,2024-06-08 13:21:15,15.08853565,0.0001202,53.2168,253.4764,76.3696,283.743,8.3819e-05,1.047e-05,0.0,0 STARLINK-4669,1 53748U 22107BA  24160.55642867  .00001047  00000-0  83819-4 0  9990,2 53748  53.2168 253.4764 0001202  76.3696 283.7430 15.08853565 98108,6917.839,95.437,540.535,538.872,0.0
53748.0,STARLINK-4669,PAYLOAD,2024-06-08 22:53:34,15.08844276,0.0001115,53.2157,251.6918,70.0882,290.023,-3.598e-05,-8.6e-06,0.0,0 STARLINK-4669,1 53748U 22107BA  24160.95387219 -.00000860  00000-0 -35980-4 0  9991,2 53748  53.2157 251.6918 0001115  70.0882 290.0230 15.08844276 97385,6917.867,95.437,540.504,538.961,0.0
53748.0,STARLINK-4669,PAYLOAD,2024-06-09 11:36:41,15.08820845,0.0001253,53.2163,249.3116,76.2824,283.8307,-0.00021478,-3.703e-05,0.0,0 STARLINK-4669,1 53748U 22107BA  24161.48380859 -.00003703  00000-0 -21478-3 0  9998,2 53748  53.2163 249.3116 0001253  76.2824 283.8307 15.08820845 97463,6917.939,95.439,540.671,538.937,0.0
53748.0,STARLINK-4669,PAYLOAD,2024-06-09 22:44:23,15.08821555,0.0001245,53.2169,247.2313,78.245,281.8681,-0.00021277,-3.671e-05,0.0,0 STARLINK-4669,1 53748U 22107BA  24161.94749324 -.00003671  00000-0 -21277-3 0  9996,2 53748  53.2169 247.2313 0001245  78.2450 281.8681 15.08821555 98310,6917.937,95.439,540.663,538.94,0.0
53748.0,STARLINK-4669,PAYLOAD,2024-06-10 13:02:51,15.08836776,0.0001415,53.2188,244.5562,86.9149,273.2006,5.0839e-06,-2.07e-06,0.0,0 STARLINK-4669,1 53748U 22107BA  24162.54365498 -.00000207  00000-0  50839-5 0  9998,2 53748  53.2188 244.5562 0001415  86.9149 273.2006 15.08836776 97627,6917.89,95.438,540.734,538.776,0.0
53748.0,STARLINK-4669,PAYLOAD,2024-06-10 22:35:09,15.08849749,0.0001327,53.2181,242.7711,83.7445,276.3698,-4.8807e-05,-1.065e-05,0.0,0 STARLINK-4669,1 53748U 22107BA  24162.94108757 -.00001065  00000-0 -48807-4 0  9990,2 53748  53.2181 242.7711 0001327  83.7445 276.3698 15.08849749 98460,6917.851,95.437,540.634,538.798,0.0
53748.0,STARLINK-4669,PAYLOAD,2024-06-11 12:53:38,15.08850733,0.0001217,53.2162,240.0953,79.4047,280.7082,0.00059677,9.225e-05,0.0,0 STARLINK-4669,1 53748U 22107BA  24163.53725296  .00009225  00000-0  59677-3 0  9999,2 53748  53.2162 240.0953 0001217  79.4047 280.7082 15.08850733 98557,6917.848,95.437,540.554,538.871,0.0
53748.0,STARLINK-4669,PAYLOAD,2024-06-11 22:25:57,15.08855353,0.0001229,53.2156,238.3114,78.3293,281.7837,0.00050373,7.741e-05,0.0,0 STARLINK-4669,1 53748U 22107BA  24163.93469080  .00007741  00000-0  50373-3 0  9994,2 53748  53.2156 238.3114 0001229  78.3293 281.7837 15.08855353 97835,6917.833,95.437,540.549,538.848,0.0
53748.0,STARLINK-4669,PAYLOAD,2024-06-12 11:09:01,15.08855826,0.0001365,53.2154,235.9321,82.9607,277.154,0.00023863,3.514e-05,0.0,0 STARLINK-4669,1 53748U 22107BA  24164.46460598  .00003514  00000-0  23863-3 0  9996,2 53748  53.2154 235.9321 0001365  82.9607 277.1540 15.08855826 97911,6917.832,95.437,540.641,538.753,0.0
53748.0,STARLINK-4669,PAYLOAD,2024-06-13 10:59:49,15.08843037,0.000119,53.2159,231.4708,87.4366,272.6763,0.00014854,2.077e-05,0.0,0 STARLINK-4669,1 53748U 22107BA  24165.45820616  .00002077  00000-0  14854-3 0  9990,2 53748  53.2159 231.4708 0001190  87.4366 272.6763 15.08843037 98069,6917.871,95.437,540.559,538.913,0.0
53748.0,STARLINK-4669,PAYLOAD,2024-06-14 10:50:36,15.08841129,0.0001242,53.2165,227.0099,89.5002,270.6132,-2.413e-05,-6.72e-06,0.0,0 STARLINK-4669,1 53748U 22107BA  24166.45180594 -.00000672  00000-0 -24130-4 0  9995,2 53748  53.2165 227.0099 0001242  89.5002 270.6132 15.08841129 98998,6917.877,95.437,540.601,538.883,0.0
53748.0,STARLINK-4669,PAYLOAD,2024-06-15 13:52:08,15.08843749,0.0001312,53.2171,221.9565,89.7428,270.3715,9.4936e-05,1.223e-05,0.0,0 STARLINK-4669,1 53748U 22107BA  24167.57788056  .00001223  00000-0  94936-4 0  9998,2 53748  53.2171 221.9565 0001312  89.7428 270.3715 15.08843749 99162,6917.869,95.437,540.642,538.826,0.0
53748.0,STARLINK-4669,PAYLOAD,2024-06-15 20:13:41,15.08840651,0.0001248,53.2165,220.7665,87.1579,272.9556,8.1363e-05,1.007e-05,0.0,0 STARLINK-4669,1 53748U 22107BA  24167.84284265  .00001007  00000-0  81363-4 0  9991,2 53748  53.2165 220.7665 0001248  87.1579 272.9556 15.08840651 99205,6917.878,95.438,540.607,538.88,0.0
53748.0,STARLINK-4669,PAYLOAD,2024-06-16 13:42:56,15.08836422,0.0001327,53.2169,217.4963,89.7714,270.343,4.5517e-05,4.37e-06,0.0,0 STARLINK-4669,1 53748U 22107BA  24168.57148799  .00000437  00000-0  45517-4 0  9990,2 53748  53.2169 217.4963 0001327  89.7714 270.3430 15.08836422 99316,6917.891,95.438,540.674,538.838,0.0
53748.0,STARLINK-4669,PAYLOAD,2024-06-16 20:04:29,15.08836695,0.0001327,53.2169,216.3068,90.1678,269.9466,2.9546e-05,1.82e-06,0.0,0 STARLINK-4669,1 53748U 22107BA  24168.83644868  .00000182  00000-0  29546-4 0  9998,2 53748  53.2169 216.3068 0001327  90.1678 269.9466 15.08836695 99354,6917.89,95.438,540.673,538.837,0.0
53748.0,STARLINK-4669,PAYLOAD,2024-06-17 19:55:16,15.0883961,0.0001359,53.2168,211.8462,88.4444,271.6704,2.0187e-05,3.3e-07,0.0,0 STARLINK-4669,1 53748U 22107BA  24169.83004753  .00000033  00000-0  20187-4 0  9999,2 53748  53.2168 211.8462 0001359  88.4444 271.6704 15.08839610 98722,6917.882,95.438,540.687,538.806,0.0
53748.0,STARLINK-4669,PAYLOAD,2024-06-18 10:13:44,15.08839871,0.0001291,53.2161,209.1693,87.1469,272.9671,6.627e-05,7.67e-06,0.0,0 STARLINK-4669,1 53748U 22107BA  24170.42620628  .00000767  00000-0  66270-4 0  9998,2 53748  53.2161 209.1693 0001291  87.1469 272.9671 15.08839871 99591,6917.881,95.438,540.639,538.853,0.0
